#dP2024  2  8  0  0  0.00000000      96 __u+U IGS20 FIT  IAC
## 2300 345600.00000000   900.00000000 60348 0.0000000000000
+  131   C01C02C03C04C05C06C07C08C09C10C11C12C13C14C16C19C20
+        C21C22C23C24C25C26C27C28C29C30C32C33C34C35C36C37C38
+        C39C40C41C42C43C44C45C46C59C60E02E03E04E05E07E08E09
+        E10E11E12E13E14E15E18E19E21E24E25E26E27E30E31E33E34
+        E36G01G02G03G04G05G06G07G08G09G10G11G12G13G14G15G16
+        G17G18G19G20G21G22G23G24G25G26G27G28G29G30G31G32J02
+        J03J04J07R01R02R03R04R05R06R07R08R09R10R11R12R13R14
+        R15R16R17R18R19R20R21R22R23R24R25R26  0  0  0  0  0
++        17 17 17 17 16  9  9 10  9  9  9  9  9  9  9  7  7
++         7  7  7  7  7  7  7  7  7  7  8  7  7  7  7  8  8
++         8  8  8  7  7  7  7  7 20 17  5  4  4  4  5  5  4
++         4  4  5  4  4  4  5  5  4  4  4  5  4  5  4  5  4
++         4  4  4  4  4  4  4  4  4  4  4  4  4  5  4  4  4
++         4  4  4  4  4  4  4  4  3  4  4  4  4  4  3  4  8
++         9  9 17  8  6  6  6  6 15  6  6  6 15  6  6  8  6
++         6  6  6  6  7  7  6  6 15  6  8  9  0  0  0  0  0
%c M  cc GPS ccc cccc cccc cccc cccc ccccc ccccc ccccc ccccc
%c cc cc ccc ccc cccc cccc cccc cccc ccccc ccccc ccccc ccccc
%f  0.0000000  0.000000000  0.00000000000  0.000000000000000
%f  0.0000000  0.000000000  0.00000000000  0.000000000000000
%i    0    0    0    0      0      0      0      0         0
%i    0    0    0    0      0      0      0      0         0
/* INFORMATION & ANALYSIS CENTER (IAC)            RAPID DATA
/* S/V CLOCKS ARE ALIGNED TO GNSS TIME                      
/* G:C1WC2W R:C1PC2P E:C1XC5X C:C2IC6I J:C1CC2S             
/* PCV:IGS20_2290 OL/AL:FES2004  NONE     YN ORB:CoN CLK:CoN
*  2024 02 08  3 30  0.00000000
PC01 -34358.467858  24406.545259  -1200.103939    884.052292
PC02   4460.527183  41934.537744   -362.220750    409.216897
PC03 -14652.470375  39519.164134   -943.463910    -46.127801
PC04 -39651.989088  14285.840164  -1113.189997    870.874336
PC05  21934.641137  35982.580009     52.089176   -687.352535
PC06 -17572.785354  26931.048964  27161.904042     96.264203
PC07  -8490.981143  40652.818897   7940.098089   -766.274398
PC08    -92.313858  24142.669513 -34506.984019     54.707032
PC09  -7636.592052  26332.177041  32301.301058   -460.511121
PC10  -3244.948808  42301.166413   2091.853674     93.965168
PC11  -3337.899495 -16162.583281  22573.177788    399.332198
PC12  14850.229019 -20759.828420  11328.048338    775.277880
PC13   8077.590998  28338.949141 -29857.591529    415.383972
PC14  -7877.924195 -26124.697744  -5689.613228    141.942325
PC16 -19368.026995  26527.145788  26503.732558   -327.062490
PC19  12729.232590  20454.077432  14131.128385   -928.955119
PC20   2868.749805  27709.636069  -1880.875714   -141.722557
PC21   9718.458411 -18714.536682  18283.770150   -962.561870
PC22  15848.594936   1051.580365  22948.030031   -117.842731
PC23 -26566.310006  -5038.426387   6909.103918   -782.773449
PC24  -2472.374377 -17662.123566 -21492.553119    864.352289
PC25 -21200.543192 -15274.321689  -9842.792938    320.920258
PC26  16301.861639  -9748.616286 -20454.806617   -246.088736
PC27 -20465.113117  18721.644595  -3019.591691    268.097553
PC28 -23789.295099   7566.221108  12476.602637    203.825208
PC29  12766.492881  10054.831779 -22690.473624    238.873778
PC30  -5878.152655  21010.782161 -17391.202350    -22.716445
PC32  -9591.422469  18752.715107 -18292.877787   -564.413299
PC33 -12816.413600 -20436.959337 -14009.400815   -947.219849
PC34   4419.125156 -20621.160017  18276.900295    364.585481
PC35  23527.053941  -8365.424667 -12514.248754    438.736883
PC36  20444.608005  15953.990342  10303.779042    -22.890823
PC37 -16992.161792   9024.294347  20223.209554   -934.968541
PC38  -8941.848836  21345.879787 -35172.669450    135.460985
PC39 -24952.111591  26778.169664  20777.417694     -7.028446
PC40 -14271.221210  38221.066330  11164.406938    -55.539163
PC41 -15933.774937  -1910.776576 -22771.950284   -888.039049
PC42  -1802.311815 -27613.118649   3543.009523   -456.580018
PC43 -12011.451557 -10917.218536  22689.661223     59.577675
PC44  19855.591276 -19435.411014   2788.528116    377.948941
PC45  26496.348807   4926.650170  -7200.410536    -68.689737
PC46   3473.831677  17717.301541  21253.514384   -122.073528
PC59 -32267.395466  27135.510215   -804.168583     -0.345979
PC60   7303.530559  41492.062472  -1460.184025     -0.296219
PE02 -18350.899556 -23075.716777   2753.590031    101.616510
PE03  -9501.696272 -16815.438908 -22430.403081    -92.382028
PE04  19021.157392  -3982.057747  22336.391648   -322.220115
PE05   5428.869993 -27523.003095  -9442.926588   4717.965897
PE07 -17437.882130  21949.348960  -9506.371375   -102.627984
PE08 -18740.782850   3297.350277 -22674.013832   -220.475666
PE09  17423.270636 -21882.852736   9670.235048   -328.256192
PE10  28261.845189  -6479.831470   5959.257624   -600.275341
PE11  22258.433849 -11998.712946  15398.657086   3257.960963
PE12  29424.305022   -507.508662  -3299.859154   -896.993629
PE13 -22755.577037  11674.404687 -14881.991849    -20.122989
PE14  10118.972013 -21640.524413   1052.499529     33.222497
PE15 -29339.994503    184.709106   3875.220586    -84.594207
PE18  -7048.766947  30135.679985  -9451.932651    301.920067
PE19   7725.831385  18709.985565  21603.930912   -657.079740
PE21   5340.305900  25193.370286  14576.799084   -577.914737
PE24  11791.565694 -12414.184119 -24170.125006   -586.206630
PE25  -5006.844511 -25094.697643 -14890.800781      0.588191
PE26  -2218.371937  16295.402900 -24600.562478    362.462725
PE27 -11428.993331  12744.369320  24140.156437   -269.275205
PE30 -21311.265016  -7362.728708  19170.072592   -889.294491
PE31  21248.399535   7045.831474 -19362.374265    -15.514071
PE33  18128.540737  11482.264667 -20381.319809      7.248870
PE34 -18662.200750 -11201.220850  20062.512775    -93.427505
PE36   3000.809240 -16153.683024  24630.131495   -182.915207
PG01  11862.734386  12561.818803 -20613.006475    168.706835
PG02   3682.788670  14393.901249 -21528.024320   -488.816221
PG03  10952.806837  23247.087343  -7098.498842    179.118267
PG04   1440.690211  21491.371491  15463.377034    286.273961
PG05  -1651.006634 -20394.055717  16711.462670   -160.981493
PG06  25243.813212  -6174.707979   5821.488665    415.515330
PG07  22687.357491   6913.894943  12911.498935    -56.722850
PG08  -4009.802949  24805.087815  -7994.902495   -165.968754
PG09  11598.115520  10873.207634  21187.364098     84.913991
PG10 -18184.467948  -3502.459075 -18959.122362    -72.450576
PG11  17815.410738 -11882.649224  15705.876995   -568.342906
PG12  -8879.436921 -24016.478649  -7478.471327   -475.832646
PG13  13372.177100 -22789.331814  -1111.503845    623.504594
PG14  19470.799923   7103.798452 -16690.539451    319.990861
PG15    784.616091 -25313.459048  -8128.196958    125.447837
PG16  -6043.204856  16379.492108  19544.564223   -367.389256
PG17  16938.473143  -3157.271692 -19831.591179    717.661255
PG18 -23327.969615  -5813.000428  11505.566235   -550.720053
PG19  18567.577666 -11419.951473 -15107.396012    437.635873
PG20   9628.651165 -12130.417077  21644.803012    388.323754
PG21  -1679.890076  15287.473954 -21044.519705    135.706764
PG22  16308.185411   -528.006427 -20469.149669     34.817977
PG23 -19890.349685 -14437.309449 -10289.134110    151.596009
PG24  -1799.072322 -15918.943137 -21579.510687   -428.076521
PG25 -17129.282910 -20349.897522   2067.476872    487.908625
PG26 -13916.183570   7849.162607  21095.785264    192.492721
PG27 -12752.128159  22682.135736   3720.549938     -2.083545
PG28 -25838.798321   5496.496309   2699.600449   -123.843841
PG29  -9320.219685 -13006.266611  21131.607301   -607.377045
PG30  26565.649512   -632.284459   2801.380698   -435.398856
PG31 -21984.311624   9907.424006  11365.074947   -227.690366
PG32 -17243.301977   7058.874289 -18647.426482   -610.391456
PJ02 -26654.091933  22399.650479  28900.422194     -1.792382
PJ03 -34897.441758  19873.196676  -8260.738435     -0.215538
PJ04 -17496.869677  32292.933359 -15530.418943     50.963480
PJ07 -25393.826195  33649.576317      5.228473     -0.007060
PR01  -3542.601692 -24058.756363  -7680.811131     76.603696
PR02  -9220.395514 -11491.908985 -20794.023770    -22.456530
PR03 -10505.435219   7835.932911 -21821.005012     94.117328
PR04  -5968.734160  22256.063711 -10890.658226    222.494753
PR05   1654.379557  24743.901721   5931.176142    126.565789
PR06  10102.103283   9777.859784  21272.648817   -149.752063
PR07  10436.074102  -8841.652039  21587.094334     75.335813
PR08   5820.401582 -22421.951682  10783.749737    -74.334445
PR09  22318.503846  12408.471940   -858.596333    168.792753
PR10  20218.116337   3633.557291 -15082.705193   -120.087148
PR11   6763.388312  -8691.303271 -23003.639978     35.040925
PR12 -11891.158704 -16148.827674 -15757.364599     36.506246
PR13 -21476.345276 -13683.694270  -1559.935301    -44.137790
PR14 -19251.823129  -2170.774398  16587.062254     26.033556
PR15  -5462.824256   9641.419301  22985.806339     82.391970
PR16  11781.964052  15974.329305  16041.266703     23.108825
PR17 -23109.792386   9748.696883   4750.014786     59.412483
PR18 -17212.116903  14739.044592 -11636.308622    126.278317
PR19  -4514.073960  12803.435104 -21590.570233   -264.991964
PR20  15815.644778   2299.009192 -19885.670925   -107.943567
PR21  23148.284295  -9727.835308  -4433.392804    -75.247809
PR22  16800.693691 -14590.087957  12516.505275    107.038924
PR23    511.850887 -11651.104762  22682.960451   -111.304450
PR24 -16471.799318  -1670.743971  19428.124898    -43.034533
PR25  23496.383132  -8790.205956  -4567.968541     90.866485
PR26   6023.946661 -21925.907255  11562.634703   -199.458276
EOF
